IRIDIUM 8 [+]           
1 24792U 97020A   17049.35105530  .00000142  00000-0  43608-4 0  9997
2 24792  86.3985   8.3635 0002221  87.3638 272.7812 14.34215544 36160
IRIDIUM 7 [+]           
1 24793U 97020B   17049.41443698  .00000145  00000-0  44743-4 0  9999
2 24793  86.3990   8.6133 0002170  86.5268 273.6176 14.34215563 36171
IRIDIUM 6 [+]           
1 24794U 97020C   17049.40804173  .00000142  00000-0  43597-4 0  9991
2 24794  86.3988   8.5494 0002181  85.1441 275.0003 14.34216622 36170
IRIDIUM 5 [+]           
1 24795U 97020D   17049.40193579  .00000203  00000-0  65345-4 0  9996
2 24795  86.3988   8.5623 0002082  84.9586 275.1847 14.34209397 36259
IRIDIUM 4 [-]           
1 24796U 97020E   17049.34506178  .00000022  00000-0  60826-6 0  9993
2 24796  86.3980   7.6030 0002146  84.6169  26.3660 14.35138738 36260
IRIDIUM 914 [-]         
1 24836U 97030A   17049.47310693  .00000155  00000-0  43983-4 0  9998
2 24836  86.3944  24.6210 0003436 110.8045 249.3521 14.38739316 31879
IRIDIUM 12 [+]          
1 24837U 97030B   17049.50974534 -.00000044  00000-0 -22786-4 0  9990
2 24837  86.3940  39.6977 0002097  86.2088  27.7711 14.34214869 29937
IRIDIUM 10 [+]          
1 24839U 97030D   17049.49679519 -.00000031  00000-0 -18281-4 0  9996
2 24839  86.3938  39.6836 0002124  86.6570  25.7042 14.34214882 29942
IRIDIUM 13 [+]          
1 24840U 97030E   17049.49401514 -.00000043  00000-0 -22511-4 0  9990
2 24840  86.3941  39.8222 0001975  88.5820 271.5602 14.34214507 29937
IRIDIUM 16 [-]          
1 24841U 97030F   17049.52073047  .00000127  00000-0  36289-4 0  9999
2 24841  86.4023  39.7050 0001677  18.1327 341.9930 14.36689660 30541
IRIDIUM 911 [-]         
1 24842U 97030G   17049.48241066  .00000145  00000-0  35719-4 0  9990
2 24842  86.4448  40.5758 0016351 120.7994 239.4819 14.44932296 35809
IRIDIUM 15 [+]          
1 24869U 97034A   17049.46565188 -.00000050  00000-0 -24812-4 0  9994
2 24869  86.3916  71.7422 0002180  82.7910 277.3534 14.34217474 26898
IRIDIUM 17 [-]          
1 24870U 97034B   17049.54988765  .00000106  00000-0  29941-4 0  9993
2 24870  86.3926  69.8957 0001003 147.0144 213.1115 14.35737044 27153
IRIDIUM 920 [-]         
1 24871U 97034C   17049.57249978  .00000102  00000-0  26391-4 0  9995
2 24871  86.3942  56.3471 0012358  20.7020 339.4677 14.39451891 29298
IRIDIUM 18 [+]          
1 24872U 97034D   17049.58615482 -.00000046  00000-0 -23500-4 0  9992
2 24872  86.3924  71.6601 0002120  85.4618 274.6820 14.34216124 26910
IRIDIUM 921 [-]         
1 24873U 97034E   17049.45065566  .00000684  00000-0  38668-4 0  9998
2 24873  86.3951 122.1209 0010379  93.4034 266.8392 15.11116042 70160
IRIDIUM 26 [-]          
1 24903U 97043A   17049.24102319  .00000094  00000-0  26085-4 0  9992
2 24903  86.3976 304.6085 0002071  82.1561  30.7638 14.35238757 20912
IRIDIUM 25 [+]          
1 24904U 97043B   17049.25536662  .00000175  00000-0  55435-4 0  9997
2 24904  86.3967 305.1619 0002081  80.3955 279.7476 14.34217784 20786
IRIDIUM 46 [+]          
1 24905U 97043C   17049.26801857  .00000168  00000-0  53029-4 0  9999
2 24905  86.2831 305.2082 0001905  87.2852 272.8562 14.34221970 20789
IRIDIUM 23 [+]          
1 24906U 97043D   17049.21362884  .00000163  00000-0  51033-4 0  9995
2 24906  86.3981 305.2103 0002204  81.6026  30.3796 14.34223079 20783
IRIDIUM 22 [+]          
1 24907U 97043E   17049.58516423  .00000175  00000-0  55262-4 0  9997
2 24907  86.3978 305.6794 0002110  83.6605 276.4831 14.34224833 20839
DUMMY MASS 1 [-]        
1 24925U 97048A   17049.52812255  .00000080  00000-0  60911-5 0  9991
2 24925  86.3331  98.1482 0009412  99.2136 261.0153 14.85119708 53972
DUMMY MASS 2 [-]        
1 24926U 97048B   17049.21114738  .00000084  00000-0  65378-5 0  9995
2 24926  86.3333  99.3911 0010140 106.1583 254.0758 14.84887950 53770
IRIDIUM 29 [-]          
1 24944U 97051A   17049.25965062 -.00000094  00000-0 -40244-4 0  9994
2 24944  86.4001 336.6327 0002256  92.2247 267.9207 14.34619853 17370
IRIDIUM 32 [+]          
1 24945U 97051B   17049.33494186  .00000199  00000-0  64100-4 0  9999
2 24945  86.3997 336.7963 0002227  84.2322 275.9128 14.34216660 17385
IRIDIUM 33 [-]          
1 24946U 97051C   17049.31180282  .00000111  00000-0  32918-4 0  9993
2 24946  86.3915 336.4986 0005797 272.3610  87.6922 14.33537377 17002
IRIDIUM 28 [-]          
1 24948U 97051E   17049.35155269  .00000096  00000-0  26360-4 0  9992
2 24948  86.4005 335.8954 0001929  78.8379 281.3035 14.35532183 17535
IRIDIUM 30 [+]          
1 24949U 97051F   17049.39835965  .00000019  00000-0 -12329-6 0  9993
2 24949  86.4021 336.8806 0001841  67.8707 292.2684 14.34219409 17372
IRIDIUM 31 [+]          
1 24950U 97051G   17049.39202628  .00000209  00000-0  67728-4 0  9990
2 24950  86.3998 336.8655 0002119  87.5203 272.6235 14.34216591 17381
IRIDIUM 19 [+]          
1 24965U 97056A   17049.44625453  .00000132  00000-0  39944-4 0  9996
2 24965  86.3986   8.3347 0002191  86.8625 273.2821 14.34214380 15530
IRIDIUM 35 [+]          
1 24966U 97056B   17049.38915044  .00000147  00000-0  45273-4 0  9996
2 24966  86.3984   8.3531 0002190  86.4718 273.6728 14.34215664 15505
IRIDIUM 36 [-]          
1 24967U 97056C   17049.43046144  .00000121  00000-0  35270-4 0  9997
2 24967  86.3999   7.4868 0002113  90.7365 269.4074 14.35584509 15826
IRIDIUM 37 [+]          
1 24968U 97056D   17049.43358625  .00000144  00000-0  44239-4 0  9998
2 24968  86.3987   8.5177 0002204  87.4491 272.6957 14.34211779 15510
IRIDIUM 34 [+]          
1 24969U 97056E   17049.38279661  .00000134  00000-0  40742-4 0  9999
2 24969  86.3987   8.4754 0002158  87.7221 272.4222 14.34213363 15506
IRIDIUM 43 [+]          
1 25039U 97069A   17049.57979972 -.00000028  00000-0 -17195-4 0  9995
2 25039  86.3922  71.5980 0002018  93.0198 267.1229 14.34217026  9314
IRIDIUM 41 [+]          
1 25040U 97069B   17049.57346243 -.00000048  00000-0 -24028-4 0  9991
2 25040  86.3923  71.5475 0002125  84.2924 275.8514 14.34216294  9313
IRIDIUM 40 [+]          
1 25041U 97069C   17049.52906985 -.00000027  00000-0 -16529-4 0  9996
2 25041  86.3920  71.7962 0002009 120.0170 240.1226 14.34217911  9320
IRIDIUM 39 [B]          
1 25042U 97069D   17049.55701416  .00000149  00000-0  35980-4 0  9997
2 25042  86.3884  69.8312 0018617 354.2045   5.8939 14.46128567  9576
IRIDIUM 38 [-]          
1 25043U 97069E   17049.55400963  .00000119  00000-0  34202-4 0  9994
2 25043  86.3924  68.8794 0001415  51.8206 308.3118 14.36009792  9704
IRIDIUM 42 [-]          
1 25077U 97077A   17049.46890157  .00000114  00000-0  33414-4 0  9997
2 25077  86.3927  71.5598 0002114  87.0300 273.1138 14.34526355  5175
IRIDIUM 44 [-]          
1 25078U 97077B   17049.58184044  .00000116  00000-0  31757-4 0  9992
2 25078  86.3927  61.3751 0000962  41.5056 318.6215 14.38098475  6584
IRIDIUM 45 [+]          
1 25104U 97082A   17049.38569872  .00000219  00000-0  71108-4 0  9990
2 25104  86.3995 336.9022 0001990  53.1795 306.9583 14.34218896  3348
IRIDIUM 24 [-]          
1 25105U 97082B   17049.20501379  .00000075  00000-0  17394-4 0  9997
2 25105  86.3914 285.7094 0012531  26.1180 334.0648 14.39835571  5730
IRIDIUM 47 [+]          
1 25106U 97082C   17049.27442845  .00000156  00000-0  48462-4 0  9997
2 25106  86.3965 305.0290 0002224  82.0077 278.1371 14.34219460  3327
IRIDIUM 49 [+]          
1 25108U 97082E   17049.31399736  .00000023  00000-0  10604-5 0  9995
2 25108  86.3968 305.1119 0002177  81.1454  57.8783 14.34217956  3337
IRIDIUM 52 [+]          
1 25169U 98010A   17049.52575665 -.00000024  00000-0 -15652-4 0  9994
2 25169  86.3943  39.9820 0002083  86.9023 273.2411 14.34214957994776
IRIDIUM 56 [+]          
1 25170U 98010B   17049.51949725  .00000007  00000-0 -46441-5 0  9998
2 25170  86.3937  40.0837 0002078  80.3446 279.7985 14.34212694994754
IRIDIUM 54 [+]          
1 25171U 98010C   17049.48135334 -.00000034  00000-0 -19189-4 0  9997
2 25171  86.3943  40.0209 0002090  87.3154 272.8281 14.34214961994912
IRIDIUM 50 [+]          
1 25172U 98010D   17049.51304919 -.00000048  00000-0 -24154-4 0  9992
2 25172  86.3943  39.9644 0002170  88.4072 271.7372 14.34215098994756
IRIDIUM 53 [+]          
1 25173U 98010E   17049.53212701  .00000050  00000-0  10929-4 0  9998
2 25173  86.3948  39.9619 0002160  90.6926 269.4518 14.34216049994760
IRIDIUM 51 [S]          
1 25262U 98018A   17049.47811225  .00000152  00000-0  47186-4 0  9992
2 25262  86.4002   8.6259 0002542  89.2700 270.8787 14.34216077994149
IRIDIUM 61 [+]          
1 25263U 98018B   17049.37022379  .00000142  00000-0  43542-4 0  9997
2 25263  86.3988   8.5095 0002213  86.7983 273.3466 14.34212671989837
IRIDIUM 55 [+]          
1 25272U 98019A   17049.30322928  .00000171  00000-0  54138-4 0  9999
2 25272  86.3997 336.7186 0002203  83.4149 276.7298 14.34216515989023
IRIDIUM 57 [-]          
1 25273U 98019B   17049.48329797  .00000052  00000-0  11561-4 0  9991
2 25273  86.4004 336.9465 0002243  89.7963 270.3490 14.34256524989054
IRIDIUM 58 [+]          
1 25274U 98019C   17049.28419905  .00000206  00000-0  66348-4 0  9995
2 25274  86.4003 337.2229 0002272  82.6506 277.4948 14.34217049989025
IRIDIUM 59 [+]          
1 25275U 98019D   17049.29053621  .00000189  00000-0  60445-4 0  9998
2 25275  86.3998 337.0797 0002263  85.9807 274.1647 14.34218022989028
IRIDIUM 60 [+]          
1 25276U 98019E   17049.36665157  .00000204  00000-0  65786-4 0  9991
2 25276  86.3995 336.6723 0002178  83.8087 276.3356 14.34216408989030
IRIDIUM 62 [+]          
1 25285U 98021A   17049.60710660  .00000010  00000-0 -33351-5 0  9991
2 25285  86.3932 273.4712 0002128  84.9828 275.1610 14.34222432988029
IRIDIUM 63 [-]          
1 25286U 98021B   17049.58632331  .00000070  00000-0  17928-4 0  9993
2 25286  86.3963 273.8830 0002272  93.0968 322.2470 14.34641341988049
